{
  "type": "FeatureCollection",
  "features": [
    {
      "type": "Feature",
      "properties": {
        "norad_id": 40069,
        "name": "METEOR-M 2",
        "group": "weather",
        "lat": 68.839892930416,
        "lon": 179.64953713855934,
        "alt_km": 811.8875903942726,
        "timestamp": "2025-12-25T20:42:38.331072+00:00",
        "meta_object_name": "METEOR-M 2",
        "meta_object_id": "2014-037A",
        "meta_epoch": "2025-12-25T06:40:55.056864",
        "meta_mean_motion": 14.21392493,
        "meta_eccentricity": 0.0005629,
        "meta_inclination": 98.4919,
        "meta_ra_of_asc_node": 336.3829,
        "meta_arg_of_pericenter": 170.7958,
        "meta_mean_anomaly": 189.3324,
        "meta_ephemeris_type": 0,
        "meta_classification_type": "U",
        "meta_norad_cat_id": 40069,
        "meta_element_set_no": 999,
        "meta_rev_at_epoch": 59461,
        "meta_bstar": 0.00028012947,
        "meta_mean_motion_dot": 5.7e-06,
        "meta_mean_motion_ddot": 0,
        "tle_line1": "1 40069U 14037A   25359.27841501  .00000570  00000+0  28013-3 0  9994",
        "tle_line2": "2 40069  98.4919 336.3829 0005629 170.7958 189.3324 14.21392493594617"
      },
      "geometry": {
        "type": "Point",
        "coordinates": [
          179.64953713855934,
          68.839892930416
        ]
      }
    },
    {
      "type": "Feature",
      "properties": {
        "norad_id": 40267,
        "name": "HIMAWARI-8",
        "group": "weather",
        "lat": -0.01933251559153456,
        "lon": -174.07301159107715,
        "alt_km": 35788.23030556066,
        "timestamp": "2025-12-25T20:42:38.331084+00:00",
        "meta_object_name": "HIMAWARI-8",
        "meta_object_id": "2014-060A",
        "meta_epoch": "2025-12-25T04:34:38.772192",
        "meta_mean_motion": 1.0027122,
        "meta_eccentricity": 9.366e-05,
        "meta_inclination": 0.043,
        "meta_ra_of_asc_node": 199.255,
        "meta_arg_of_pericenter": 105.813,
        "meta_mean_anomaly": 358.216,
        "meta_ephemeris_type": 0,
        "meta_classification_type": "U",
        "meta_norad_cat_id": 40267,
        "meta_element_set_no": 999,
        "meta_rev_at_epoch": 4101,
        "meta_bstar": 0,
        "meta_mean_motion_dot": -2.54e-06,
        "meta_mean_motion_ddot": 0,
        "tle_line1": "1 40267U 14060A   25359.19072653 -.00000254  00000+0  00000+0 0  9997",
        "tle_line2": "2 40267   0.0430 199.2550 0000936 105.8130 358.2160  1.00271220 41011"
      },
      "geometry": {
        "type": "Point",
        "coordinates": [
          -174.07301159107715,
          -0.01933251559153456
        ]
      }
    },
    {
      "type": "Feature",
      "properties": {
        "norad_id": 40367,
        "name": "FENGYUN 2G",
        "group": "weather",
        "lat": 4.887542831944719,
        "lon": 144.44086549151473,
        "alt_km": 35784.05892948137,
        "timestamp": "2025-12-25T20:42:38.331096+00:00",
        "meta_object_name": "FENGYUN 2G",
        "meta_object_id": "2014-090A",
        "meta_epoch": "2025-12-25T01:33:21.992832",
        "meta_mean_motion": 1.00282434,
        "meta_eccentricity": 0.00016701,
        "meta_inclination": 5.1966,
        "meta_ra_of_asc_node": 74.9437,
        "meta_arg_of_pericenter": 171.6176,
        "meta_mean_anomaly": 329.8444,
        "meta_ephemeris_type": 0,
        "meta_classification_type": "U",
        "meta_norad_cat_id": 40367,
        "meta_element_set_no": 999,
        "meta_rev_at_epoch": 4025,
        "meta_bstar": 0,
        "meta_mean_motion_dot": -2.82e-06,
        "meta_mean_motion_ddot": 0,
        "tle_line1": "1 40367U 14090A   25359.06483788 -.00000282  00000+0  00000+0 0  9993",
        "tle_line2": "2 40367   5.1966  74.9437 0001670 171.6176 329.8444  1.00282434 40255"
      },
      "geometry": {
        "type": "Point",
        "coordinates": [
          144.44086549151473,
          4.887542831944719
        ]
      }
    },
    {
      "type": "Feature",
      "properties": {
        "norad_id": 40732,
        "name": "METEOSAT-11 (MSG-4)",
        "group": "weather",
        "lat": -0.8213932377889979,
        "lon": 54.46936611972988,
        "alt_km": 35788.9596185665,
        "timestamp": "2025-12-25T20:42:38.331108+00:00",
        "meta_object_name": "METEOSAT-11 (MSG-4)",
        "meta_object_id": "2015-034A",
        "meta_epoch": "2025-12-24T23:24:56.791584",
        "meta_mean_motion": 1.00271323,
        "meta_eccentricity": 7.133e-05,
        "meta_inclination": 2.7671,
        "meta_ra_of_asc_node": 71.9685,
        "meta_arg_of_pericenter": 137.0347,
        "meta_mean_anomaly": 245.1596,
        "meta_ephemeris_type": 0,
        "meta_classification_type": "U",
        "meta_norad_cat_id": 40732,
        "meta_element_set_no": 999,
        "meta_rev_at_epoch": 547,
        "meta_bstar": 0,
        "meta_mean_motion_dot": 8.1e-07,
        "meta_mean_motion_ddot": 0,
        "tle_line1": "1 40732U 15034A   25358.97565731  .00000081  00000+0  00000+0 0  9992",
        "tle_line2": "2 40732   2.7671  71.9685 0000713 137.0347 245.1596  1.00271323  5470"
      },
      "geometry": {
        "type": "Point",
        "coordinates": [
          54.46936611972988,
          -0.8213932377889979
        ]
      }
    },
    {
      "type": "Feature",
      "properties": {
        "norad_id": 41105,
        "name": "ELEKTRO-L 2",
        "group": "weather",
        "lat": -4.16694094574719,
        "lon": 31.01332362287279,
        "alt_km": 35791.71071499338,
        "timestamp": "2025-12-25T20:42:38.331120+00:00",
        "meta_object_name": "ELEKTRO-L 2",
        "meta_object_id": "2015-074A",
        "meta_epoch": "2025-12-24T23:18:12.436992",
        "meta_mean_motion": 1.0027204,
        "meta_eccentricity": 0.000354,
        "meta_inclination": 6.2545,
        "meta_ra_of_asc_node": 72.6824,
        "meta_arg_of_pericenter": 208.1447,
        "meta_mean_anomaly": 147.994,
        "meta_ephemeris_type": 0,
        "meta_classification_type": "U",
        "meta_norad_cat_id": 41105,
        "meta_element_set_no": 999,
        "meta_rev_at_epoch": 3675,
        "meta_bstar": 0,
        "meta_mean_motion_dot": -9.8e-07,
        "meta_mean_motion_ddot": 0,
        "tle_line1": "1 41105U 15074A   25358.97097728 -.00000098  00000+0  00000+0 0  9996",
        "tle_line2": "2 41105   6.2545  72.6824 0003540 208.1447 147.9940  1.00272040 36753"
      },
      "geometry": {
        "type": "Point",
        "coordinates": [
          31.01332362287279,
          -4.16694094574719
        ]
      }
    },
    {
      "type": "Feature",
      "properties": {
        "norad_id": 41752,
        "name": "INSAT-3DR",
        "group": "weather",
        "lat": 0.08438728823120954,
        "lon": 119.18294831869282,
        "alt_km": 35839.85997784569,
        "timestamp": "2025-12-25T20:42:38.331133+00:00",
        "meta_object_name": "INSAT-3DR",
        "meta_object_id": "2016-054A",
        "meta_epoch": "2025-12-24T15:09:51.705216",
        "meta_mean_motion": 1.00271379,
        "meta_eccentricity": 0.00142635,
        "meta_inclination": 0.1198,
        "meta_ra_of_asc_node": 86.2568,
        "meta_arg_of_pericenter": 185.6475,
        "meta_mean_anomaly": 122.9543,
        "meta_ephemeris_type": 0,
        "meta_classification_type": "U",
        "meta_norad_cat_id": 41752,
        "meta_element_set_no": 999,
        "meta_rev_at_epoch": 3406,
        "meta_bstar": 0,
        "meta_mean_motion_dot": -5.6e-07,
        "meta_mean_motion_ddot": 0,
        "tle_line1": "1 41752U 16054A   25358.63184844 -.00000056  00000+0  00000+0 0  9996",
        "tle_line2": "2 41752   0.1198  86.2568 0014263 185.6475 122.9543  1.00271379 34066"
      },
      "geometry": {
        "type": "Point",
        "coordinates": [
          119.18294831869282,
          0.08438728823120954
        ]
      }
    },
    {
      "type": "Feature",
      "properties": {
        "norad_id": 41836,
        "name": "HIMAWARI-9",
        "group": "weather",
        "lat": 0.01583278249736143,
        "lon": -173.96042887210777,
        "alt_km": 35792.04530240518,
        "timestamp": "2025-12-25T20:42:38.331145+00:00",
        "meta_object_name": "HIMAWARI-9",
        "meta_object_id": "2016-064A",
        "meta_epoch": "2025-12-23T22:52:38.784288",
        "meta_mean_motion": 1.00271828,
        "meta_eccentricity": 0.00016373,
        "meta_inclination": 0.0175,
        "meta_ra_of_asc_node": 40.3208,
        "meta_arg_of_pericenter": 292.8784,
        "meta_mean_anomaly": 243.4785,
        "meta_ephemeris_type": 0,
        "meta_classification_type": "U",
        "meta_norad_cat_id": 41836,
        "meta_element_set_no": 999,
        "meta_rev_at_epoch": 3345,
        "meta_bstar": 0,
        "meta_mean_motion_dot": 0,
        "meta_mean_motion_ddot": 0,
        "tle_line1": "1 41836U 16064A   25357.95322667  .00000000  00000+0  00000+0 0  9999",
        "tle_line2": "2 41836   0.0175  40.3208 0001637 292.8784 243.4785  1.00271828 33458"
      },
      "geometry": {
        "type": "Point",
        "coordinates": [
          -173.96042887210777,
          0.01583278249736143
        ]
      }
    }
  ]
}